PROBA-1                 
1 26958U 01049B   26156.32138632  .00001444  00000+0  96678-4 0  9994
2 26958  97.9596 164.4406 0055425 161.4019 198.9250 15.07440519341834
CUTE-1 (CO-55)          
1 27844U 03031E   26154.54951729  .00000336  00000+0  16425-3 0  9994
2 27844  98.6736 163.2800 0008690 219.4250 140.6297 14.24327019189732
CUBESAT XI-IV (CO-57)   
1 27848U 03031J   26156.28822976  .00000257  00000+0  13217-3 0  9990
2 27848  98.6767 164.7190 0008404 234.4870 125.5525 14.23614275189688
APRIZESAT 4             
1 35684U 09041D   26155.71471126  .00000905  00000+0  11430-3 0  9993
2 35684  98.1412 230.7866 0043322   3.9288 356.2256 14.83862321909510
APRIZESAT 3             
1 35686U 09041F   26155.99443439  .00001619  00000+0  14379-3 0  9999
2 35686  98.2060 308.6358 0062955 106.9309 253.8824 14.96207329914552
PROBA-2                 
1 36037U 09059B   26156.27351108  .00000193  00000+0  55550-4 0  9995
2 36037  98.2450 339.7917 0012389 322.1824  37.8501 14.54857088879797
APRIZESAT 5             
1 37792U 11044E   26156.04921013  .00001390  00000+0  18235-3 0  9992
2 37792  98.2452  88.7461 0053247  42.9778 317.5574 14.81048814796993
APRIZESAT 6             
1 37793U 11044F   26155.74862655  .00000878  00000+0  13078-3 0  9995
2 37793  98.2372  65.9940 0044215 124.6952 296.7831 14.76897456795318
PROBA-V                 
1 39159U 13021A   26156.17073495  .00000080  00000+0  53002-4 0  9991
2 39159  98.3579 135.3711 0004558 152.9510 207.1908 14.23594314679405
APRIZESAT 7             
1 39416U 13066A   26156.14558839  .00001531  00000+0  15685-3 0  9999
2 39416  97.7702 109.5389 0034333 250.5951 109.1556 14.91537995679434
APRIZESAT 8             
1 39425U 13066K   26155.09268803  .00001269  00000+0  14319-3 0  9992
2 39425  97.8216 102.7439 0045204 330.7670  29.1018 14.87624717677722
BUGSAT-1 (TITA)         
1 40014U 14033E   26156.28369939  .00005829  00000+0  30941-3 0  9992
2 40014  98.0421 248.1377 0027130 219.4776 140.4479 15.15450453654036
SAUDISAT 4              
1 40016U 14033G   26156.28359792  .00000852  00000+0  11872-3 0  9993
2 40016  97.7570 302.8314 0046144 111.5719 249.0420 14.79527362644318
APRIZESAT 9             
1 40018U 14033J   26156.19379675  .00000685  00000+0  10825-3 0  9998
2 40018  97.9047 289.6866 0064945 238.2194 121.2678 14.74198073641791
APRIZESAT 10            
1 40019U 14033K   26156.08579997  .00000492  00000+0  85126-4 0  9999
2 40019  97.9636 283.3162 0077758 313.1196  46.3524 14.70872039640475
TECHDEMOSAT-1 (TDS-1)   
1 40076U 14037H   26154.53647005  .00009479  00000+0  53972-3 0  9997
2 40076  98.3810 145.3987 0005072 327.0999  32.9913 15.13072942646162
TECHNOSAT               
1 42829U 17042E   26156.14796804  .00002788  00000+0  20051-3 0  9993
2 42829  97.4274 314.2664 0018981 131.7844 228.5009 15.04881527484891
FLYING LAPTOP           
1 42831U 17042G   26156.32014637  .00004218  00000+0  33317-3 0  9992
2 42831  97.4646 312.3137 0018875 160.5709 199.6240 15.01065347484675
HAWK-A                  
1 43765U 18099H   26156.07453890  .00006468  00000+0  26193-3 0  9995
2 43765  97.3913 208.4689 0033827 330.4373  29.4951 15.24492931411255
HAWK-B                  
1 43794U 18099AN  26156.08168259  .00006394  00000+0  27380-3 0  9997
2 43794  97.3964 207.9163 0031474 349.0314  11.0233 15.22685741411195
HAWK-C                  
1 43799U 18099AT  26156.07838583  .00007779  00000+0  28171-3 0  9992
2 43799  97.3890 209.3260 0039478 330.2942  29.6055 15.27924694412065
SALSAT                  
1 46495U 20068K   26155.97862976  .00008911  00000+0  31300-3 0  9995
2 46495  97.8851 158.3021 0009245 356.4519   3.6652 15.29615280313492
HAWK-2C                 
1 47502U 21006CT  26156.08909335  .00006280  00000+0  19013-3 0  9996
2 47502  97.2279 200.6410 0005390 233.3358 126.7391 15.34511296297647
HAWK-2A                 
1 47505U 21006CW  26156.09170506  .00006344  00000+0  19196-3 0  9993
2 47505  97.2322 201.3144 0004867 238.1535 121.9235 15.34526539297649
HAWK-2B                 
1 47508U 21006CZ  26156.08785754  .00007169  00000+0  21612-3 0  9994
2 47508  97.2190 199.6616 0005404 234.8047 125.2691 15.34594421297645
HAWK-3B                 
1 48931U 21059BE  26156.07952780  .00042186  00000+0  37354-3 0  9995
2 48931  97.6669 351.6519 0004268  24.8527 335.2939 15.68504099275957
HAWK-3C                 
1 48948U 21059BX  26156.07921628  .00039530  00000+0  35007-3 0  9992
2 48948  97.6789 357.3162 0004757  26.1206 334.0294 15.68510599275950
HAWK-3A                 
1 48957U 21059CG  26156.07911275  .00042733  00000+0  37821-3 0  9994
2 48957  97.6732 354.5314 0004688  27.0092 333.1412 15.68510067275954
HAWK-5C                 
1 52754U 22057Y   26155.98086693  .00021996  00000+0  38076-3 0  9990
2 52754  97.6592 314.8670 0005570 119.5190 240.6617 15.50936027224456
HAWK-5B                 
1 52756U 22057AA  26155.98072007  .00022012  00000+0  38098-3 0  9990
2 52756  97.6595 313.2152 0005996 111.5475 248.6416 15.50936706224458
