OBJECT_NAME,OBJECT_ID,EPOCH,MEAN_MOTION,ECCENTRICITY,INCLINATION,RA_OF_ASC_NODE,ARG_OF_PERICENTER,MEAN_ANOMALY,EPHEMERIS_TYPE,CLASSIFICATION_TYPE,NORAD_CAT_ID,ELEMENT_SET_NO,REV_AT_EPOCH,BSTAR,MEAN_MOTION_DOT,MEAN_MOTION_DDOT
PROBA-1,2001-049B,2026-06-05T07:42:47.778048,15.07440519,.0055425,97.9596,164.4406,161.4019,198.9250,0,U,26958,999,34183,.96678239E-4,.1444E-4,0
CUTE-1 (CO-55),2003-031E,2026-06-03T13:11:18.293856,14.24327019,.00086909,98.6736,163.2800,219.4250,140.6297,0,U,27844,999,18973,.16425086E-3,.336E-5,0
CUBESAT XI-IV (CO-57),2003-031J,2026-06-05T06:55:03.051264,14.23614275,.00084044,98.6767,164.7190,234.4870,125.5525,0,U,27848,999,18968,.13216853E-3,.257E-5,0
APRIZESAT 4,2009-041D,2026-06-04T17:09:11.052864,14.83862321,.00433221,98.1412,230.7866,3.9288,356.2256,0,U,35684,999,90951,.1142998E-3,.905E-5,0
APRIZESAT 3,2009-041F,2026-06-04T23:51:59.131296,14.96207329,.0062955,98.2060,308.6358,106.9309,253.8824,0,U,35686,999,91455,.14378691E-3,.1619E-4,0
PROBA-2,2009-059B,2026-06-05T06:33:51.357312,14.54857088,.00123898,98.2450,339.7917,322.1824,37.8501,0,U,36037,999,87979,.55549948E-4,.193E-5,0
APRIZESAT 5,2011-044E,2026-06-05T01:10:51.755232,14.81048814,.00532474,98.2452,88.7461,42.9778,317.5574,0,U,37792,999,79699,.18234884E-3,.139E-4,0
APRIZESAT 6,2011-044F,2026-06-04T17:58:01.333920,14.76897456,.0044215,98.2372,65.9940,124.6952,296.7831,0,U,37793,999,79531,.13078E-3,.878E-5,0
PROBA-V,2013-021A,2026-06-05T04:05:51.499680,14.23594314,.00045582,98.3579,135.3711,152.9510,207.1908,0,U,39159,999,67940,.53001862E-4,.8E-6,0
APRIZESAT 7,2013-066A,2026-06-05T03:29:38.836896,14.91537995,.00343333,97.7702,109.5389,250.5951,109.1556,0,U,39416,999,67943,.1568522E-3,.1531E-4,0
APRIZESAT 8,2013-066K,2026-06-04T02:13:28.245792,14.87624717,.0045204,97.8216,102.7439,330.7670,29.1018,0,U,39425,999,67772,.14319275E-3,.1269E-4,0
BUGSAT-1 (TITA),2014-033E,2026-06-05T06:48:31.627296,15.15450453,.00271309,98.0421,248.1377,219.4776,140.4479,0,U,40014,999,65403,.30941406E-3,.5829E-4,0
SAUDISAT 4,2014-033G,2026-06-05T06:48:22.860288,14.79527362,.0046144,97.7570,302.8314,111.5719,249.0420,0,U,40016,999,64431,.11871663E-3,.852E-5,0
APRIZESAT 9,2014-033J,2026-06-05T04:39:04.039200,14.74198073,.00649451,97.9047,289.6866,238.2194,121.2678,0,U,40018,999,64179,.10824943E-3,.685E-5,0
APRIZESAT 10,2014-033K,2026-06-05T02:03:33.117408,14.70872039,.0077758,97.9636,283.3162,313.1196,46.3524,0,U,40019,999,64047,.85125546E-4,.492E-5,0
TECHDEMOSAT-1 (TDS-1),2014-037H,2026-06-03T12:52:31.012320,15.13072942,.00050725,98.3810,145.3987,327.0999,32.9913,0,U,40076,999,64616,.53972252E-3,.9479E-4,0
TECHNOSAT,2017-042E,2026-06-05T03:33:04.438656,15.04881527,.00189817,97.4274,314.2664,131.7844,228.5009,0,U,42829,999,48489,.20051382E-3,.2788E-4,0
FLYING LAPTOP,2017-042G,2026-06-05T07:41:00.646368,15.01065347,.00188758,97.4646,312.3137,160.5709,199.6240,0,U,42831,999,48467,.33317316E-3,.4218E-4,0
HAWK-A,2018-099H,2026-06-05T01:47:20.160960,15.24492931,.00338275,97.3913,208.4689,330.4373,29.4951,0,U,43765,999,41125,.26193248E-3,.6468E-4,0
HAWK-B,2018-099AN,2026-06-05T01:57:37.375776,15.22685741,.00314743,97.3964,207.9163,349.0314,11.0233,0,U,43794,999,41119,.27379597E-3,.6394E-4,0
HAWK-C,2018-099AT,2026-06-05T01:52:52.535712,15.27924694,.00394782,97.3890,209.3260,330.2942,29.6055,0,U,43799,999,41206,.28171156E-3,.7779E-4,0
SALSAT,2020-068K,2026-06-04T23:29:13.611264,15.29615280,.0009245,97.8851,158.3021,356.4519,3.6652,0,U,46495,999,31349,.3129959E-3,.8911E-4,0
HAWK-2C,2021-006CT,2026-06-05T02:08:17.665440,15.34511296,.00053901,97.2279,200.6410,233.3358,126.7391,0,U,47502,999,29764,.19013078E-3,.628E-4,0
HAWK-2A,2021-006CW,2026-06-05T02:12:03.317184,15.34526539,.00048673,97.2322,201.3144,238.1535,121.9235,0,U,47505,999,29764,.19195662E-3,.6344E-4,0
HAWK-2B,2021-006CZ,2026-06-05T02:06:30.891456,15.34594421,.00054049,97.2190,199.6616,234.8047,125.2691,0,U,47508,999,29764,.21611535E-3,.7169E-4,0
HAWK-3B,2021-059BE,2026-06-05T01:54:31.201920,15.68504099,.0004268,97.6669,351.6519,24.8527,335.2939,0,U,48931,999,27595,.37353622E-3,.42186E-3,0
HAWK-3C,2021-059BX,2026-06-05T01:54:04.286592,15.68510599,.00047572,97.6789,357.3162,26.1206,334.0294,0,U,48948,999,27595,.35006631E-3,.3953E-3,0
HAWK-3A,2021-059CG,2026-06-05T01:53:55.341600,15.68510067,.00046885,97.6732,354.5314,27.0092,333.1412,0,U,48957,999,27595,.37821449E-3,.42733E-3,0
HAWK-5C,2022-057Y,2026-06-04T23:32:26.902752,15.50936027,.00055706,97.6592,314.8670,119.5190,240.6617,0,U,52754,999,22445,.38075612E-3,.21996E-3,0
HAWK-5B,2022-057AA,2026-06-04T23:32:14.214048,15.50936706,.00059961,97.6595,313.2152,111.5475,248.6416,0,U,52756,999,22445,.38098071E-3,.22012E-3,0
